     2.100          NAVIGATION                              RINEX VERSION / TYPE
fic2rin                                 08/29/2012 00:13:50 PGM / RUN BY / DATE
                                                            END OF HEADER
23 12  8 28 14  0  0.0  .170391518623D-03 -.397903932026D-11  .000000000000D+00
     .250000000000D+02  .150625000000D+02  .436553898508D-08 -.688730739874D+00
     .795349478722D-06  .822762085591D-02  .105053186417D-04  .515359455681D+04
     .223200000000D+06  .191852450371D-06 -.751702725927D+00 -.372529029846D-08
     .959038051556D+00  .173250000000D+03 -.294482045815D+01 -.796140305296D-08
    -.267153985179D-09  .100000000000D+01  .170300000000D+04  .000000000000D+00
     .240000000000D+01  .000000000000D+00 -.200234353542D-07  .250000000000D+02
     .216006000000D+06  .400000000000D+01
25 12  8 28 14  0  0.0  .410280190408D-04  .113686837722D-11  .000000000000D+00
     .560000000000D+02 -.356875000000D+02  .474269755239D-08  .246757208604D+01
    -.191666185856D-05  .181964354124D-02  .151805579662D-05  .515366625404D+04
     .223200000000D+06 -.335276126862D-07  .132009088706D+01  .335276126862D-07
     .969468470207D+00  .354437500000D+03  .789941472004D+00 -.844678041374D-08
    -.133576992589D-09  .100000000000D+01  .170300000000D+04  .000000000000D+00
     .240000000000D+01  .000000000000D+00  .512227416039D-08  .560000000000D+02
     .216006000000D+06  .400000000000D+01
26 12  8 28 14  0  0.0 -.299849547446D-03  .126192389871D-10  .000000000000D+00
     .115000000000D+03  .425937500000D+02  .387301846962D-08 -.822248866469D+00
     .246427953243D-05  .207605210599D-01  .118855386972D-04  .515367081833D+04
     .223200000000D+06 -.121071934700D-06 -.676987542426D+00  .335276126862D-06
     .982257357110D+00  .168625000000D+03  .120478102739D+01 -.793247327650D-08
    -.290012080167D-09  .100000000000D+01  .170300000000D+04  .000000000000D+00
     .340000000000D+01  .000000000000D+00 -.605359673500D-08  .115000000000D+03
     .216006000000D+06  .400000000000D+01
27 12  8 28 14  0  0.0  .425126403570D-03  .420641299570D-11  .000000000000D+00
     .158000000000D+03  .109812500000D+03  .423017620382D-08  .188628657141D-02
     .561960041523D-05  .217512844829D-01  .775419175625D-05  .515369060326D+04
     .223200000000D+06 -.143423676491D-06  .246183303940D+00 -.348314642906D-06
     .982274502510D+00  .246937500000D+03 -.104192011275D+01 -.834677624816D-08
     .404659712844D-09  .100000000000D+01  .170300000000D+04  .000000000000D+00
     .340000000000D+01  .000000000000D+00 -.419095158577D-08  .158000000000D+03
     .216006000000D+06  .400000000000D+01
28 12  8 28 14  0  0.0  .179757829756D-03  .386535248253D-11  .000000000000D+00
     .185000000000D+03 -.500312500000D+02  .462662128878D-08  .117264799082D+01
    -.281073153019D-05  .180099230492D-01  .300072133541D-05  .515363019562D+04
     .223200000000D+06 -.430271029472D-06  .138008173719D+01 -.782310962677D-07
     .979782128978D+00  .338625000000D+03 -.182273389758D+01 -.860142971264D-08
    -.207865801302D-09  .100000000000D+01  .170300000000D+04  .000000000000D+00
     .240000000000D+01  .000000000000D+00 -.107102096081D-07  .185000000000D+03
     .216006000000D+06  .400000000000D+01
29 12  8 28 14  0  0.0  .349274370819D-03  .420641299570D-11  .000000000000D+00
     .810000000000D+02 -.111531250000D+03  .412517182996D-08 -.293958448417D+01
    -.577606260777D-05  .191181059927D-02  .111330300570D-04  .515380804443D+04
     .223200000000D+06  .558793544769D-08  .242207814989D+01  .167638063431D-07
     .964289694856D+00  .166593750000D+03 -.106149419657D+01 -.780246786125D-08
    -.178578867098D-09  .100000000000D+01  .170300000000D+04  .000000000000D+00
     .240000000000D+01  .000000000000D+00 -.977888703346D-08  .810000000000D+02
     .216006000000D+06  .400000000000D+01
30 12  8 28 14  0  0.0 -.391802750528D-03 -.235331754084D-10  .000000000000D+00
     .174000000000D+03 -.179687500000D+02  .508164024214D-08  .407400097621D+00
    -.838190317154D-06  .112154785311D-01  .181421637535D-05  .515369835281D+04
     .223200000000D+06 -.782310962677D-07  .122830103283D+01 -.186264514923D-07
     .960682503139D+00  .347343750000D+03  .160113026818D+01 -.879322341591D-08
    -.628597612185D-10  .100000000000D+01  .170300000000D+04  .000000000000D+00
     .480000000000D+02  .000000000000D+00 -.419095158577D-08  .174000000000D+03
     .216006000000D+06  .400000000000D+01
31 12  8 28 14  0  0.0  .270614400506D-03  .261479726760D-11  .000000000000D+00
     .180000000000D+02  .112750000000D+03  .414445834761D-08 -.227747545498D+01
     .606849789619D-05  .778015924152D-02  .729039311409D-05  .515371397400D+04
     .223200000000D+06 -.102445483208D-06  .301647957214D+00  .147148966789D-06
     .981170635730D+00  .250937500000D+03 -.857761398874D+00 -.784354100068D-08
     .371444043564D-09  .100000000000D+01  .170300000000D+04  .000000000000D+00
     .240000000000D+01  .000000000000D+00 -.135041773319D-07  .180000000000D+02
     .216006000000D+06  .400000000000D+01
32 12  8 28 14  0  0.0 -.481695868075D-03 -.420641299570D-11  .000000000000D+00
     .590000000000D+02 -.185625000000D+02  .502270921600D-08 -.169414628621D+01
    -.931322574615D-06  .118338096654D-01  .593252480030D-05  .515358734512D+04
     .223200000000D+06 -.221654772758D-06 -.172512320496D+01 -.108033418655D-06
     .950562356246D+00  .262843750000D+03 -.532197327743D+00 -.841142179805D-08
    -.101789954246D-09  .100000000000D+01  .170300000000D+04  .000000000000D+00
     .240000000000D+01  .000000000000D+00 -.325962901115D-08  .590000000000D+02
     .216006000000D+06  .400000000000D+01
17 12  8 28 13 59 44.0  .101277139038D-03 -.318323145621D-11  .000000000000D+00
     .140000000000D+02 -.948750000000D+02  .429196449183D-08  .537776503773D+00
    -.485777854919D-05  .750136561692D-02  .111237168312D-04  .515373927879D+04
     .223184000000D+06 -.819563865662D-07  .241346032039D+01  .104308128357D-06
     .963716696177D+00  .167968750000D+03 -.229742154423D+01 -.803819196582D-08
    -.224295057075D-09  .100000000000D+01  .170300000000D+04  .000000000000D+00
     .240000000000D+01  .000000000000D+00 -.107102096081D-07  .140000000000D+02
     .216066000000D+06  .400000000000D+01
30 12  8 28 13 59 44.0 -.391819514334D-03 -.248974174610D-10  .000000000000D+00
     .900000000000D+01 -.179687500000D+02  .508128308441D-08  .405066768154D+00
    -.838190317154D-06  .112154720118D-01  .181421637535D-05  .515369835281D+04
     .223184000000D+06 -.782310962677D-07  .122830117035D+01 -.186264514923D-07
     .960682495825D+00  .347343750000D+03  .160112985125D+01 -.879322341591D-08
    -.632169189527D-10  .100000000000D+01  .170300000000D+04  .000000000000D+00
     .240000000000D+01  .000000000000D+00 -.419095158577D-08  .900000000000D+01
     .219486000000D+06  .400000000000D+01
21 12  8 28 13 59 44.0 -.246089417487D-03 -.238742359215D-11  .000000000000D+00
     .190000000000D+02  .272812500000D+02  .500592280249D-08 -.313031430129D+01
     .125914812088D-05  .193439992145D-01  .935792922974D-05  .515357592392D+04
     .223184000000D+06  .670552253723D-07 -.285584401044D+01 -.290572643280D-06
     .931782022518D+00  .179406250000D+03 -.222474942970D+01 -.792533012181D-08
     .514664294977D-09  .100000000000D+01  .170300000000D+04  .000000000000D+00
     .240000000000D+01  .000000000000D+00 -.111758708954D-07  .190000000000D+02
     .220416000000D+06  .400000000000D+01
 2 12  8 28 13 59 44.0  .401201192290D-03  .113686837722D-11  .000000000000D+00
     .700000000000D+01  .290625000000D+02  .508235455761D-08 -.875965037128D+00
     .146403908730D-05  .114066435490D-01  .929087400436D-05  .515374487686D+04
     .223184000000D+06  .379979610443D-06 -.287798307095D+01 -.130385160446D-07
     .939021635437D+00  .191031250000D+03 -.274636587767D+01 -.828177354054D-08
     .457161899771D-09  .100000000000D+01  .170300000000D+04  .000000000000D+00
     .240000000000D+01  .000000000000D+00 -.172294676304D-07  .700000000000D+01
     .220956000000D+06  .400000000000D+01
15 12  8 28 13 59 44.0 -.944137573242D-04 -.568434188608D-12  .000000000000D+00
     .300000000000D+01  .993750000000D+01  .472091093060D-08 -.159004498741D+00
     .568106770515D-06  .456622161437D-02  .116340816021D-04  .515362048531D+04
     .223184000000D+06  .614672899246D-07 -.788788853479D+00 -.428408384323D-07
     .944208575334D+00  .144031250000D+03  .337258208158D-01 -.814283918194D-08
    -.395373611755D-09  .100000000000D+01  .170300000000D+04  .000000000000D+00
     .240000000000D+01  .000000000000D+00 -.102445483208D-07  .300000000000D+01
     .222696000000D+06  .400000000000D+01
 2 12  8 28 15 59 44.0  .401209108531D-03  .113686837722D-11  .000000000000D+00
     .110000000000D+02  .290625000000D+02  .520914555325D-08  .174195678532D+00
     .152736902237D-05  .114071635762D-01  .900030136108D-05  .515374594498D+04
     .230384000000D+06  .158324837685D-06 -.287804350556D+01  .171363353729D-06
     .939023841518D+00  .195156250000D+03 -.274638506091D+01 -.849249660371D-08
     .415374444870D-09  .100000000000D+01  .170300000000D+04  .000000000000D+00
     .240000000000D+01  .000000000000D+00 -.172294676304D-07  .110000000000D+02
     .223206000000D+06  .400000000000D+01
15 12  8 28 15 59 44.0 -.944179482758D-04 -.568434188608D-12  .000000000000D+00
     .260000000000D+02  .152812500000D+02  .461197782167D-08  .891136890308D+00
     .812113285065D-06  .456763315015D-02  .112298876047D-04  .515362320709D+04
     .230384000000D+06  .614672899246D-07 -.788846940104D+00  .614672899246D-07
     .944205953785D+00  .153281250000D+03  .337976764260D-01 -.805747848346D-08
    -.433946647048D-09  .100000000000D+01  .170300000000D+04  .000000000000D+00
     .240000000000D+01  .000000000000D+00 -.102445483208D-07  .260000000000D+02
     .223206000000D+06  .400000000000D+01
